{
  "norad_id": 48361,
  "name": "STARLINK-2591",
  "history": [
    {
      "epoch": "2026-03-28T19:39:41.122944Z",
      "apogee_km": 476.050810458235,
      "perigee_km": 474.2705978466038,
      "latitude_deg": 3.497006632269824e-06,
      "longitude_deg": 148.11125515856287,
      "height_km": 476.1394315244099,
      "semi_major_axis_km": 6853.297704152419,
      "eccentricity": 0.00012988,
      "inclination_deg": 53.1592,
      "raan_deg": 269.2668,
      "arg_perigee_deg": 95.206,
      "mean_anomaly_deg": 264.9089,
      "mean_motion_rev_day": 15.30218208
    }
  ]
}